1 34540U 97051JH  26114.81464979  .00007902  00000+0  10796-2 0  9992
2 34540  86.3085 246.5872 0016664  73.6317  78.5607 14.78378425909855
